{
"type": "FeatureCollection",
"name": "swot_science_hr_Oct2025-v11S_perPass",
"crs": { "type": "name", "properties": { "name": "urn:ogc:def:crs:EPSG::3031" } },
"features": [
{ "type": "Feature", "properties": { }, "geometry": { "type": "Polygon", "coordinates": [ [ [ -1566306.515198344597593, -548005.7887390893884, 0.0 ], [ -1578170.047139945207164, -563642.531137271318585, 0.0 ], [ -1589274.23768966505304, -555184.39903918816708, 0.0 ], [ -1601254.374960634624586, -571709.616388590540737, 0.0 ], [ -1645124.050809721462429, -539941.610819408902898, 0.0 ], [ -1632387.231058657402173, -522344.959601802635007, 0.0 ], [ -1657380.546902413945645, -503307.393015651206952, 0.0 ], [ -1650907.408907797886059, -494756.993867436540313, 0.0 ], [ -1658290.443879507947713, -492167.954976841865573, 0.0 ], [ -1653644.176282633561641, -478958.598092177300714, 0.0 ], [ -1660299.010175141738728, -473697.436082628089935, 0.0 ], [ -1654834.597442693542689, -466794.480968254269101, 0.0 ], [ -1670093.753817266551778, -461070.976753378752619, 0.0 ], [ -1658769.593549066921696, -430861.272807013359852, 0.0 ], [ -1678854.293759531108662, -422831.4186455628369, 0.0 ], [ -1669068.991839384892955, -398233.277969797083642, 0.0 ], [ -1649470.927128456998616, -406055.022011403576471, 0.0 ], [ -1647762.604205523617566, -401497.692503136990126, 0.0 ], [ -1666559.604332429124042, -384514.375962352845818, 0.0 ], [ -1680489.750464188167825, -400620.99455068714451, 0.0 ], [ -1707711.579018483171239, -377241.24501723155845, 0.0 ], [ -1693201.804102862253785, -360442.826832743943669, 0.0 ], [ -1710835.518410061718896, -344510.553073791379575, 0.0 ], [ -1707794.786525768693537, -341139.82681101874914, 0.0 ], [ -1714325.745631986763328, -338024.880415932100732, 0.0 ], [ -1713219.333022637758404, -335704.209248422936071, 0.0 ], [ -1733461.515764647861943, -325505.160705390095245, 0.0 ], [ -1700903.103910518810153, -260739.270854399219388, 0.0 ], [ -1682007.858680140227079, -270238.967809514375404, 0.0 ], [ -1651734.69967468525283, -206741.81795805375441, 0.0 ], [ -1634619.023761099204421, -214878.721210954070557, 0.0 ], [ -1632521.693622498074546, -210222.203253034880618, 0.0 ], [ -1596082.839705460937694, -226585.016604913864285, 0.0 ], [ -1567706.591793191619217, -200187.733345599001041, 0.0 ], [ -1562332.778490056283772, -205959.395742277789395, 0.0 ], [ -1547853.007487811846659, -193063.678724562225398, 0.0 ], [ -1515351.73213799088262, -229947.385400784114609, 0.0 ], [ -1528824.749100223882124, -241948.184765384619823, 0.0 ], [ -1526544.501600326038897, -244397.249890628678259, 0.0 ], [ -1503169.559236658969894, -270069.506696984870359, 0.0 ], [ -1512974.185519275721163, -279187.091932760959025, 0.0 ], [ -1514869.949835758656263, -283753.568199754867237, 0.0 ], [ -1506344.567478351993486, -292675.216959719662555, 0.0 ], [ -1512612.777095929253846, -298761.900942515814677, 0.0 ], [ -1502877.760717934230343, -302638.37799369863933, 0.0 ], [ -1503984.994476973079145, -305606.930008300289046, 0.0 ], [ -1508232.841987702762708, -316289.50588710559532, 0.0 ], [ -1504381.047959828283638, -320107.439126472861972, 0.0 ], [ -1492252.726538431365043, -324636.09686462051468, 0.0 ], [ -1507653.959489569067955, -366224.803371617977973, 0.0 ], [ -1490277.078653751639649, -372292.633634388912469, 0.0 ], [ -1490863.632253535790369, -374101.30095440329751, 0.0 ], [ -1493286.858579250052571, -380700.23616158682853, 0.0 ], [ -1480233.674036412034184, -392523.660909108468331, 0.0 ], [ -1450546.539518725592643, -419867.34446516801836, 0.0 ], [ -1461980.547903134487569, -432495.925372838042676, 0.0 ], [ -1452819.821847059531137, -440443.429371235833969, 0.0 ], [ -1447182.129015896469355, -445536.440597490698565, 0.0 ], [ -1453748.073637562803924, -453110.982841550838202, 0.0 ], [ -1441960.871195180574432, -456115.894395887909923, 0.0 ], [ -1447603.28992305113934, -478564.110193188593257, 0.0 ], [ -1430927.475673337932676, -482433.973111489089206, 0.0 ], [ -1436790.423084897454828, -508224.90721570502501, 0.0 ], [ -1454052.577231330098584, -504222.431600623996928, 0.0 ], [ -1455313.192374194506556, -509237.756079218059313, 0.0 ], [ -1458775.285647465847433, -521908.745444228348788, 0.0 ], [ -1476939.365490081487224, -517278.552374021091964, 0.0 ], [ -1481126.54972954490222, -531482.902606490883045, 0.0 ], [ -1500193.693112433655187, -526178.809911537566222, 0.0 ], [ -1504133.69855801621452, -538867.003470675670542, 0.0 ], [ -1523119.466368585824966, -533138.545522556640208, 0.0 ], [ -1524456.414100042311475, -534680.862379235797562, 0.0 ], [ -1528560.100358302006498, -547015.515379628050141, 0.0 ], [ -1538938.728742767125368, -543636.190990732051432, 0.0 ], [ -1540270.821916038636118, -545242.074083337094635, 0.0 ], [ -1544342.103795040864497, -541876.829693642561324, 0.0 ], [ -1544798.468147289007902, -541728.235570349381305, 0.0 ], [ -1556150.524922476615757, -556034.886245024274103, 0.0 ], [ -1566306.515198344597593, -548005.7887390893884, 0.0 ] ] ] } },
{ "type": "Feature", "properties": { }, "geometry": { "type": "Polygon", "coordinates": [ [ [ 1547418.271555058425292, -1986558.350847011897713, 0.0 ], [ 1539061.539234398631379, -1922629.08128014090471, 0.0 ], [ 1538447.643772519892082, -1917499.092178909108043, 0.0 ], [ 1597344.954623419325799, -1909709.133035495411605, 0.0 ], [ 1620988.861595080466941, -1833037.650426005246118, 0.0 ], [ 1640778.209760421421379, -1838933.674100232543424, 0.0 ], [ 1702419.641381688648835, -1857843.479246159316972, 0.0 ], [ 1707942.895700427237898, -1859598.583379173185676, 0.0 ], [ 1694073.048553948756307, -1904668.265547992661595, 0.0 ], [ 1727821.532784481532872, -1915931.95986610208638, 0.0 ], [ 1720087.597899806685746, -1939245.183485490037128, 0.0 ], [ 1757785.168552070856094, -1932579.491138513199985, 0.0 ], [ 1773324.439815656514838, -2020462.097187738167122, 0.0 ], [ 1723209.172445981996134, -2029393.685338072245941, 0.0 ], [ 1718929.409524628892541, -2030151.972483653342351, 0.0 ], [ 1715900.710687357001007, -2038631.89182461402379, 0.0 ], [ 1698728.993694484001026, -2086557.350666335783899, 0.0 ], [ 1585548.247029108460993, -2046046.320269318763167, 0.0 ], [ 1598575.41173812514171, -2009515.18664331943728, 0.0 ], [ 1597180.176328656263649, -2000720.498881109058857, 0.0 ], [ 1587605.328145835082978, -1997511.375524663599208, 0.0 ], [ 1549638.458871811628342, -2002510.667409333633259, 0.0 ], [ 1547418.271555058425292, -1986558.350847011897713, 0.0 ] ] ] } },
{ "type": "Feature", "properties": { }, "geometry": { "type": "Polygon", "coordinates": [ [ [ 57976.694114019046538, -1291286.054619127651677, 0.0 ], [ 57568.647246065826039, -1287195.549202127382159, 0.0 ], [ 60137.840123417976429, -1286932.663318341132253, 0.0 ], [ 60060.040464838915796, -1285934.035052376333624, 0.0 ], [ 62971.641303068572597, -1285688.163307895651087, 0.0 ], [ 62958.686256346860318, -1285311.933323026867583, 0.0 ], [ 71632.355726364781731, -1284956.804484342457727, 0.0 ], [ 105606.408199721132405, -1282087.846817130455747, 0.0 ], [ 113412.415509900645702, -1281482.705329886404797, 0.0 ], [ 154778.787311050720746, -1277374.723151372745633, 0.0 ], [ 172286.09614395358949, -1274866.43107801489532, 0.0 ], [ 204568.192320418718737, -1270635.582370684482157, 0.0 ], [ 204836.75668758127722, -1272514.233169245533645, 0.0 ], [ 211059.000830771401525, -1271919.640412964159623, 0.0 ], [ 214056.624485899636056, -1271240.483455791138113, 0.0 ], [ 214146.003768212365685, -1271624.648840312613174, 0.0 ], [ 228920.685215862322366, -1270212.791902048513293, 0.0 ], [ 229149.710114441404585, -1272529.236298089148477, 0.0 ], [ 230476.596432032762095, -1272426.78046377771534, 0.0 ], [ 256061.791995935083833, -1270828.492512304801494, 0.0 ], [ 256593.649094180960674, -1277740.44117722613737, 0.0 ], [ 264879.601988296664786, -1274715.460411275271326, 0.0 ], [ 266152.819413943449035, -1278115.274832761846483, 0.0 ], [ 282221.679455253179185, -1277577.723289397545159, 0.0 ], [ 285190.093576739658602, -1276317.063638675259426, 0.0 ], [ 287527.162589784245938, -1275389.083130493760109, 0.0 ], [ 288369.336818317475263, -1277372.065719719743356, 0.0 ], [ 296427.798261693154927, -1277102.486024900572374, 0.0 ], [ 309533.730270245170686, -1276920.0643941371236, 0.0 ], [ 309953.298932279285509, -1289552.71921933721751, 0.0 ], [ 313284.358641402970534, -1289649.7267672913149, 0.0 ], [ 313130.450720904453192, -1304842.443755894899368, 0.0 ], [ 317041.813798607792705, -1305124.120108505710959, 0.0 ], [ 316091.95428758620983, -1322873.350705453660339, 0.0 ], [ 320576.302955346123781, -1323388.580747187836096, 0.0 ], [ 318606.594810277863871, -1343672.714387282263488, 0.0 ], [ 324272.840695671620779, -1344566.195072398521006, 0.0 ], [ 322436.178439722047187, -1357585.816647266037762, 0.0 ], [ 327107.682380751648452, -1368585.335115903988481, 0.0 ], [ 328499.906087949813809, -1368864.182921002851799, 0.0 ], [ 328112.546540976152755, -1370951.387254227884114, 0.0 ], [ 333720.822708277497441, -1384156.62866217084229, 0.0 ], [ 332574.282491229241714, -1384645.106066438369453, 0.0 ], [ 337481.052033013198525, -1394933.773651568219066, 0.0 ], [ 334053.360816847882234, -1396575.126264697639272, 0.0 ], [ 340774.274850050802343, -1409225.331475510494784, 0.0 ], [ 335696.723020571866073, -1411934.801747981691733, 0.0 ], [ 344408.983091835281812, -1426745.442351015517488, 0.0 ], [ 341039.584866186254658, -1428734.402185754617676, 0.0 ], [ 346138.815169152687304, -1436988.26833178056404, 0.0 ], [ 337906.286432257038541, -1442086.178940803045407, 0.0 ], [ 346158.63762798422249, -1454230.894880125764757, 0.0 ], [ 362974.895793235802557, -1438087.139572051353753, 0.0 ], [ 385833.685131832666229, -1461652.616836335044354, 0.0 ], [ 393105.917364070774056, -1453966.593648770358413, 0.0 ], [ 416782.481541796703823, -1429473.387676642742008, 0.0 ], [ 440906.348420392139815, -1452289.743553264299408, 0.0 ], [ 458120.177797618729528, -1432453.174073400674388, 0.0 ], [ 470359.607312445878051, -1418807.051301883999258, 0.0 ], [ 495863.590553335496224, -1440925.947953551076353, 0.0 ], [ 522005.994518631196115, -1408044.325897018890828, 0.0 ], [ 523221.39000739651965, -1406583.715393596794456, 0.0 ], [ 550281.639808881562203, -1428078.331266671884805, 0.0 ], [ 577107.079809483606368, -1391546.402828449150547, 0.0 ], [ 605270.810254084761254, -1412004.389302684925497, 0.0 ], [ 611123.927145368303172, -1403174.797091766027734, 0.0 ], [ 628518.021310480078682, -1377589.273003507871181, 0.0 ], [ 727380.433295857161283, -1443088.690214867005125, 0.0 ], [ 717061.103306594653986, -1458700.242311851354316, 0.0 ], [ 732032.594610246014781, -1468155.161686503328383, 0.0 ], [ 707103.751159139559604, -1507800.475296853343025, 0.0 ], [ 741926.160361738759093, -1527724.691894896328449, 0.0 ], [ 720429.178075237199664, -1565462.077359458897263, 0.0 ], [ 683950.147771573276259, -1544622.55528263701126, 0.0 ], [ 658034.259098742273636, -1585837.605468998663127, 0.0 ], [ 640375.132089602295309, -1574714.269967485452071, 0.0 ], [ 627133.822817650041543, -1594746.325318604009226, 0.0 ], [ 592693.494646594743244, -1572000.42123335483484, 0.0 ], [ 531885.077502507367171, -1655819.292318687774241, 0.0 ], [ 514350.25318420981057, -1643130.318872862961143, 0.0 ], [ 510329.57931342406664, -1648466.416569391032681, 0.0 ], [ 493971.562942519783974, -1636079.871977901086211, 0.0 ], [ 493585.283388057898264, -1635953.915708622895181, 0.0 ], [ 486494.23450924817007, -1656176.443090106127784, 0.0 ], [ 479871.622877947520465, -1653866.022130267927423, 0.0 ], [ 472213.115043537807651, -1674279.88933642138727, 0.0 ], [ 400768.788184267701581, -1647630.328317576088011, 0.0 ], [ 413319.388312020921148, -1614085.657278795260936, 0.0 ], [ 408905.399440201115794, -1610268.685063038021326, 0.0 ], [ 398311.794963824853767, -1621465.453499673865736, 0.0 ], [ 362300.049808561103418, -1587493.345670649781823, 0.0 ], [ 347914.784461071772967, -1573912.055870964890346, 0.0 ], [ 321454.330201105680317, -1548910.453017745865509, 0.0 ], [ 274069.931024621473625, -1587459.488401700276881, 0.0 ], [ 270009.956191431847401, -1582487.384289867943153, 0.0 ], [ 264700.481659021053929, -1596698.164004170801491, 0.0 ], [ 248009.669840654154541, -1590461.774216237245128, 0.0 ], [ 241630.81120737886522, -1606470.841981857316568, 0.0 ], [ 209490.351521268137731, -1593720.58471908303909, 0.0 ], [ 215603.328649944800418, -1578353.401210459182039, 0.0 ], [ 144109.663697082549334, -1551640.35891713318415, 0.0 ], [ 153844.489294074533973, -1525499.555632572621107, 0.0 ], [ 70529.415883399065933, -1498379.874685961287469, 0.0 ], [ 77114.732242490848876, -1478009.710046455729753, 0.0 ], [ 29758.338166288856883, -1464847.703067424241453, 0.0 ], [ 34131.935420331130445, -1448985.584663586458191, 0.0 ], [ 7116.299967689083132, -1442752.975369909545407, 0.0 ], [ 21803.115951999239769, -1378716.304654757957906, 0.0 ], [ 9111.185748314108423, -1333371.727610390866175, 0.0 ], [ 22535.163724865182303, -1329477.52706261514686, 0.0 ], [ 19546.418386040724727, -1316685.560784561559558, 0.0 ], [ 39213.408714107747073, -1311801.406656099017709, 0.0 ], [ 37382.793427062752016, -1302081.157638019882143, 0.0 ], [ 46547.731932609574869, -1300157.132266700500622, 0.0 ], [ 50549.887730618975183, -1299404.329912396846339, 0.0 ], [ 49557.088752169380314, -1292499.16163316485472, 0.0 ], [ 57976.694114019046538, -1291286.054619127651677, 0.0 ] ] ] } },
{ "type": "Feature", "properties": { }, "geometry": { "type": "Polygon", "coordinates": [ [ [ -1702320.702761986060068, 184727.302262569894083, 0.0 ], [ -1738081.22228766605258, 152132.548604873358272, 0.0 ], [ -1720961.49981020251289, 134113.260630566597683, 0.0 ], [ -1736849.907174660591409, 118601.91580317003536, 0.0 ], [ -1762624.701279868138954, 94490.140512072684942, 0.0 ], [ -1780596.228178989142179, 113397.558018217983772, 0.0 ], [ -1795751.08081386773847, 99592.134658107126597, 0.0 ], [ -1808481.245728462003171, 88307.96634059252392, 0.0 ], [ -1827088.114596599712968, 108760.165870487049688, 0.0 ], [ -1836605.193466399563476, 100672.605709105511778, 0.0 ], [ -1843014.079858953133225, 108031.935541467508301, 0.0 ], [ -1857150.295301977312192, 96942.478266154954326, 0.0 ], [ -1868575.197101247496903, 111492.442539615702117, 0.0 ], [ -1889283.078048699302599, 94506.227584703781758, 0.0 ], [ -1946505.893995378632098, 163681.44792867457727, 0.0 ], [ -1924050.004653464304283, 182141.318314935546368, 0.0 ], [ -1945469.036383476108313, 209419.114826385863125, 0.0 ], [ -1922660.493179369485006, 227361.57939952230663, 0.0 ], [ -1928973.659028332913294, 235756.473116020060843, 0.0 ], [ -1937707.891759888501838, 246734.746232934528962, 0.0 ], [ -1918016.088564067846164, 262450.042670975613873, 0.0 ], [ -1935713.486379492096603, 285705.424472686252557, 0.0 ], [ -1907893.065595857566223, 306901.454074801760726, 0.0 ], [ -1924878.902565969852731, 330246.17193953297101, 0.0 ], [ -1849713.45097484998405, 385146.782937563024461, 0.0 ], [ -1833812.340446177637205, 363342.629261572903488, 0.0 ], [ -1828506.641555046662688, 367384.974689449300058, 0.0 ], [ -1813110.114723148522899, 347207.823154214653187, 0.0 ], [ -1798683.348342116223648, 357089.203542005212512, 0.0 ], [ -1796773.417089591035619, 354351.382753392448649, 0.0 ], [ -1773481.228132251417264, 369574.28034165565623, 0.0 ], [ -1761897.317430541384965, 352300.040326930873562, 0.0 ], [ -1748833.252786166034639, 332281.924058902193792, 0.0 ], [ -1726717.923318019369617, 346055.067116719146725, 0.0 ], [ -1700214.522337759844959, 303833.710782549867872, 0.0 ], [ -1682752.618678136263043, 275159.480394603451714, 0.0 ], [ -1703291.367371478816494, 262366.086407908122055, 0.0 ], [ -1695299.795621503144503, 250076.763502242654795, 0.0 ], [ -1703189.346166720846668, 244922.53633527335478, 0.0 ], [ -1689375.273822436342016, 229074.415713703172514, 0.0 ], [ -1714680.178511762060225, 206799.050180229183752, 0.0 ], [ -1698166.564078327268362, 188655.807054294506088, 0.0 ], [ -1702320.702761986060068, 184727.302262569894083, 0.0 ] ] ] } },
{ "type": "Feature", "properties": { }, "geometry": { "type": "Polygon", "coordinates": [ [ [ -2162222.932905907277018, 607913.045245341141708, 0.0 ], [ -2162405.902945344336331, 608386.948050172999501, 0.0 ], [ -2220734.666456924751401, 689103.545321093406528, 0.0 ], [ -2184974.609715160913765, 714966.276957092923112, 0.0 ], [ -2191417.345301086548716, 734074.508706574211828, 0.0 ], [ -2162514.578801761381328, 743823.306460900232196, 0.0 ], [ -2236326.088562905788422, 855203.058426728472114, 0.0 ], [ -2272385.507705045398325, 847981.692130579962395, 0.0 ], [ -2310283.067563966382295, 840401.434875127626583, 0.0 ], [ -2323385.37792917760089, 830926.02982946485281, 0.0 ], [ -2327738.087492968887091, 836910.087623393163085, 0.0 ], [ -2335532.40601324941963, 835351.070638273027726, 0.0 ], [ -2337427.742992458865047, 834993.514369148411788, 0.0 ], [ -2341605.982989443466067, 855975.519606587826274, 0.0 ], [ -2388881.702214492950588, 920969.664505568100139, 0.0 ], [ -2399559.032032342161983, 919351.351898967172019, 0.0 ], [ -2402751.354427370708436, 940037.511603377526626, 0.0 ], [ -2601901.359905339311808, 1213826.774354762397707, 0.0 ], [ -2560485.370240883901715, 1243973.304239925695583, 0.0 ], [ -2543921.751073123887181, 1256002.071543894242495, 0.0 ], [ -2538641.029247931204736, 1259828.08549975627102, 0.0 ], [ -2538992.299140825401992, 1268097.730836960254237, 0.0 ], [ -2547937.149107389617711, 1268126.574805929558352, 0.0 ], [ -2548007.380609541200101, 1319350.551157515263185, 0.0 ], [ -2548008.944867172744125, 1325524.819077730877325, 0.0 ], [ -2590201.492072048597038, 1389192.334587072487921, 0.0 ], [ -2547432.73928059451282, 1417612.03501148475334, 0.0 ], [ -2536822.53839600039646, 1424645.010489410953596, 0.0 ], [ -2536610.08984834048897, 1429722.824957993114367, 0.0 ], [ -2535728.739927199203521, 1450228.184819855261594, 0.0 ], [ -2533464.61876611597836, 1501538.572330472059548, 0.0 ], [ -2529398.479994802270085, 1501358.829964417265728, 0.0 ], [ -2565225.041316561866552, 1560791.36317910044454, 0.0 ], [ -2521179.452668064739555, 1587419.059130558278412, 0.0 ], [ -2515473.437749812379479, 1590859.50132654956542, 0.0 ], [ -2513516.045083576347679, 1613219.467387828277424, 0.0 ], [ -2506013.599566830787808, 1612566.069988832110539, 0.0 ], [ -2500549.142206909600645, 1654957.059419660130516, 0.0 ], [ -2498067.386595325544477, 1674030.863573021721095, 0.0 ], [ -2498485.36810346506536, 1674793.779311680467799, 0.0 ], [ -2497928.465643926989287, 1675098.555737152928486, 0.0 ], [ -2497892.651081369258463, 1675373.812474309233949, 0.0 ], [ -2491184.592913129832596, 1726457.068783543072641, 0.0 ], [ -2420829.891614495310932, 1717220.882624621503055, 0.0 ], [ -2390106.116102905478328, 1733941.557001990266144, 0.0 ], [ -2369707.462190769612789, 1696633.559690955094993, 0.0 ], [ -2357960.316896128002554, 1674710.854119692929089, 0.0 ], [ -2411982.760102843400091, 1645245.554665664210916, 0.0 ], [ -2417227.801002458203584, 1604833.603325759060681, 0.0 ], [ -2359419.260206199716777, 1599798.984932099236175, 0.0 ], [ -2369914.989304950926453, 1477474.190882622962818, 0.0 ], [ -2371222.353983554523438, 1477576.512225972022861, 0.0 ], [ -2371074.405154647305608, 1477329.737715743249282, 0.0 ], [ -2337631.405492810998112, 1421522.188829960301518, 0.0 ], [ -2319293.724612165708095, 1390907.03269334230572, 0.0 ], [ -2306267.281326127238572, 1390894.448894576635212, 0.0 ], [ -2306240.925336887594312, 1369115.101072679040954, 0.0 ], [ -2304265.874906389042735, 1365817.711522660916671, 0.0 ], [ -2270976.211673300713301, 1310213.008561408612877, 0.0 ], [ -2261740.197930417954922, 1294778.244307581335306, 0.0 ], [ -2222952.8215183285065, 1296429.27413541637361, 0.0 ], [ -2213464.665902024600655, 1301584.905188146047294, 0.0 ], [ -2168885.568654488306493, 1325752.247908865567297, 0.0 ], [ -2154415.976848468650132, 1299346.62470982526429, 0.0 ], [ -2128614.522379190661013, 1300444.893653765087947, 0.0 ], [ -2126785.290467749349773, 1260066.891541314078495, 0.0 ], [ -2091627.743978005368263, 1278140.613315250258893, 0.0 ], [ -2077378.549293386517093, 1250775.792443089419976, 0.0 ], [ -2061837.164965846575797, 1220471.764434733428061, 0.0 ], [ -2023052.206294426461682, 1239348.65117774810642, 0.0 ], [ -2014651.921780934091657, 1222394.235744271893054, 0.0 ], [ -1994585.27278138929978, 1224130.5823087641038, 0.0 ], [ -1991421.582924370188266, 1188741.73841186449863, 0.0 ], [ -1959562.146775869419798, 1203394.820845728740096, 0.0 ], [ -1943099.882424449082464, 1168003.654174097813666, 0.0 ], [ -1919342.181524128653109, 1116218.556668676435947, 0.0 ], [ -1912731.292724349536002, 1117231.425421656807885, 0.0 ], [ -1883137.806078301044181, 1130058.870825899532065, 0.0 ], [ -1858520.452635543653741, 1073217.193208978977054, 0.0 ], [ -1854817.771839395631105, 1064353.482099849963561, 0.0 ], [ -1884161.439463098766282, 1051618.497035742038861, 0.0 ], [ -1876294.33810246642679, 1001114.891669684322551, 0.0 ], [ -1912885.282501780195162, 995138.198610482853837, 0.0 ], [ -1944905.203624810557812, 990115.026187812676653, 0.0 ], [ -1978230.635063919005916, 973006.68936190160457, 0.0 ], [ -1973752.222944175824523, 964669.72153422224801, 0.0 ], [ -1993446.041265074396506, 954016.107355317799374, 0.0 ], [ -1983872.559624619781971, 906110.635684534208849, 0.0 ], [ -2020854.085922584170476, 898448.616295905550942, 0.0 ], [ -2065616.493776822462678, 889450.507525252411142, 0.0 ], [ -2100038.099510433617979, 868859.621047409018502, 0.0 ], [ -2100014.64452572632581, 868763.763818053063005, 0.0 ], [ -2086527.636127959238365, 848216.39947430382017, 0.0 ], [ -1994203.96051779971458, 875085.378389895078726, 0.0 ], [ -1978010.788701692130417, 819565.092246907646768, 0.0 ], [ -1974510.713578415568918, 813728.195930967805907, 0.0 ], [ -1972143.552207074360922, 809662.871944039594382, 0.0 ], [ -1970292.652629780117422, 810664.284789200988598, 0.0 ], [ -1952675.762862496310845, 820179.039059235714376, 0.0 ], [ -1908625.840494713746011, 843929.420188126270659, 0.0 ], [ -1902034.756939504295588, 831698.065329694887623, 0.0 ], [ -1864847.557317655067891, 844214.57782638410572, 0.0 ], [ -1855830.59892163076438, 817690.501298963557929, 0.0 ], [ -1849715.042352401884273, 805832.761099672527052, 0.0 ], [ -1819811.969173108926043, 820312.013375698588789, 0.0 ], [ -1817824.499381753616035, 816352.103647183859721, 0.0 ], [ -1809136.269104285165668, 798377.748243512585759, 0.0 ], [ -1804075.461702964967117, 800337.235535786952823, 0.0 ], [ -1779926.321572842076421, 811388.55063904938288, 0.0 ], [ -1779262.232947943964973, 809944.636602477403358, 0.0 ], [ -1776995.37131341570057, 810822.339746257057413, 0.0 ], [ -1771277.233191861072555, 796140.623882033396512, 0.0 ], [ -1744228.605654433136806, 807815.172331936191767, 0.0 ], [ -1732467.474914061138406, 781198.861011628992856, 0.0 ], [ -1707395.269454560941085, 722987.337177842739038, 0.0 ], [ -1682366.397829372668639, 664832.472153448150493, 0.0 ], [ -1659703.207839467329904, 611890.534848297946155, 0.0 ], [ -1681396.02075134916231, 602539.979409544845112, 0.0 ], [ -1680464.066747828386724, 600649.901717065018602, 0.0 ], [ -1683002.471781734609976, 599349.053140287171118, 0.0 ], [ -1678532.591658552410081, 589544.616724525694735, 0.0 ], [ -1661179.246118536219001, 550811.961596539593302, 0.0 ], [ -1684502.018533722497523, 540162.454113476676866, 0.0 ], [ -1680066.759848352521658, 530961.077559917466715, 0.0 ], [ -1666585.175928714219481, 502270.862890041258652, 0.0 ], [ -1691491.819135925034061, 490246.34387261926895, 0.0 ], [ -1684624.161951482761651, 478903.247596266155597, 0.0 ], [ -1691614.823666357900947, 474499.003051711246371, 0.0 ], [ -1695241.243704764870927, 472299.687570171256084, 0.0 ], [ -1681535.642854111036286, 450728.02264045458287, 0.0 ], [ -1684184.947437080089003, 448971.247600698901806, 0.0 ], [ -1715185.749019550159574, 429587.31611250329297, 0.0 ], [ -1729235.012662111781538, 451683.481628227746114, 0.0 ], [ -1745683.039903447497636, 441708.244184814218897, 0.0 ], [ -1746770.505976538406685, 441075.393113408819772, 0.0 ], [ -1757307.125382942380384, 458471.793001966783777, 0.0 ], [ -1773892.379101030295715, 450464.704407861165237, 0.0 ], [ -1780818.549306696746498, 464764.910120772663504, 0.0 ], [ -1803825.877411487745121, 453033.047129118524026, 0.0 ], [ -1830490.521796232787892, 505109.905619833210949, 0.0 ], [ -1855181.015591162722558, 491828.152171164285392, 0.0 ], [ -1864695.542223243974149, 509455.025259837449994, 0.0 ], [ -1920872.883161234902218, 481759.384352189372294, 0.0 ], [ -1977909.707493386464193, 453659.013841473322827, 0.0 ], [ -2035027.045186431147158, 425537.574494997097645, 0.0 ], [ -2044770.035872365813702, 420891.074148342420813, 0.0 ], [ -2066841.97245206288062, 465806.494274574448355, 0.0 ], [ -2074172.343469162704423, 480750.803314689721446, 0.0 ], [ -2126821.554795594885945, 439258.843669879832305, 0.0 ], [ -2200364.893718930892646, 532367.381765413796529, 0.0 ], [ -2160944.316634221468121, 563520.338223656639457, 0.0 ], [ -2153263.025048810057342, 569580.852311724098399, 0.0 ], [ -2158395.487433525267988, 581332.645641498733312, 0.0 ], [ -2152868.166270707268268, 583753.16792432544753, 0.0 ], [ -2154973.758681872393936, 589181.324066783417948, 0.0 ], [ -2162222.932905907277018, 607913.045245341141708, 0.0 ] ], [ [ -2122857.746292801108211, 759769.593898828607053, 0.0 ], [ -2121350.180844331625849, 757707.907797417603433, 0.0 ], [ -2113740.229136249516159, 760274.716760982060805, 0.0 ], [ -2115548.106374585069716, 766470.649003856349736, 0.0 ], [ -2117031.595396455843002, 771570.033708028960973, 0.0 ], [ -2155699.301837500650436, 746122.074530934216455, 0.0 ], [ -2129560.494132333900779, 754938.59906199737452, 0.0 ], [ -2122857.746292801108211, 759769.593898828607053, 0.0 ] ], [ [ -1932937.166785384295508, 720648.99757105181925, 0.0 ], [ -1939358.032491807593033, 717362.46046381641645, 0.0 ], [ -1950384.082736929645762, 738875.598724314942956, 0.0 ], [ -1957265.688507583225146, 735161.912704101763666, 0.0 ], [ -1947589.695204055402428, 710245.330139871453866, 0.0 ], [ -1932463.990667974809185, 719257.885635194834322, 0.0 ], [ -1932937.166785384295508, 720648.99757105181925, 0.0 ] ], [ [ -1994282.523405204061419, 749599.070537920924835, 0.0 ], [ -2017570.042746907798573, 742778.51871238858439, 0.0 ], [ -2005293.030283540487289, 724368.750191732659005, 0.0 ], [ -2004225.806457859231159, 722740.156571794068441, 0.0 ], [ -1984003.374899703776464, 730541.813244245480746, 0.0 ], [ -1994282.523405204061419, 749599.070537920924835, 0.0 ] ], [ [ -2039046.201178211951628, 736488.859415006241761, 0.0 ], [ -2067975.823484632186592, 728023.784682192606851, 0.0 ], [ -2065058.147671374492347, 719408.875097604817711, 0.0 ], [ -2063102.873669506981969, 720694.706705625867471, 0.0 ], [ -2039046.201178211951628, 736488.859415006241761, 0.0 ] ], [ [ -1902804.040683782659471, 693261.150234176311642, 0.0 ], [ -1893468.619051980553195, 697349.314358122297563, 0.0 ], [ -1897834.840118845226243, 706364.088409318821505, 0.0 ], [ -1908485.156883277930319, 702813.159756094566546, 0.0 ], [ -1902804.040683782659471, 693261.150234176311642, 0.0 ] ] ] } },
{ "type": "Feature", "properties": { }, "geometry": { "type": "Polygon", "coordinates": [ [ [ 222885.185349485720508, 2056301.386105624493212, 0.0 ], [ 197833.013301538536325, 2080810.15817978233099, 0.0 ], [ 167983.362553639744874, 2049111.001287506427616, 0.0 ], [ 142511.888575581891928, 2072983.456030886154622, 0.0 ], [ 137311.434849691373529, 2067341.987256654072553, 0.0 ], [ 134461.789990718360059, 2069899.284623659215868, 0.0 ], [ 124531.353769678040408, 2063006.245964277535677, 0.0 ], [ 114640.493457058488275, 2077082.718019936932251, 0.0 ], [ 86397.885206587336143, 2056561.930969808017835, 0.0 ], [ 84112.422807065930101, 2059625.043307431740686, 0.0 ], [ 73563.895512963455985, 2047245.564611569745466, 0.0 ], [ 32030.056277376301296, 1999060.970977238612249, 0.0 ], [ -9464.603516462297193, 1950947.567681189626455, 0.0 ], [ -13704.322186398159829, 1946181.29821093683131, 0.0 ], [ -104457.951079523074441, 2024294.102429474471137, 0.0 ], [ -99136.006770922918804, 2030505.896502614719793, 0.0 ], [ -123896.34452512198186, 2050898.729450275423005, 0.0 ], [ -114841.674459074507467, 2061936.322273666039109, 0.0 ], [ -140853.342104545881739, 2082427.017276081023738, 0.0 ], [ -113727.423018111046986, 2116979.376498487778008, 0.0 ], [ -141348.537659646972315, 2137775.023427895270288, 0.0 ], [ -112021.398389183537802, 2176868.080047943629324, 0.0 ], [ -141537.154593521816423, 2198093.446107817348093, 0.0 ], [ -74250.390902424551314, 2292016.24777101026848, 0.0 ], [ -42641.925925324168929, 2269350.869463082868606, 0.0 ], [ -28061.008163478309143, 2288787.222882326692343, 0.0 ], [ 12158.936007884887658, 2258613.436299204826355, 0.0 ], [ 28221.825290132208465, 2246542.704084618482739, 0.0 ], [ 63337.307001581633813, 2220111.054797705262899, 0.0 ], [ 76613.280109649756923, 2235575.665355388075113, 0.0 ], [ 47354.464594517114165, 2259608.667949127033353, 0.0 ], [ 59790.545024218685285, 2274975.523188497871161, 0.0 ], [ 89515.106337296878337, 2250604.448290494270623, 0.0 ], [ 111838.137826791746193, 2276607.58837234089151, 0.0 ], [ 140954.892480973969214, 2251668.754868594463915, 0.0 ], [ 163932.526922843098873, 2277375.97818007087335, 0.0 ], [ 172913.894479154230794, 2269342.571850849781185, 0.0 ], [ 173998.749583079479635, 2270058.986938732210547, 0.0 ], [ 176712.861319471790921, 2265944.576604784931988, 0.0 ], [ 192476.358309864153853, 2251844.877900850959122, 0.0 ], [ 220402.691229784773896, 2269435.397073839325458, 0.0 ], [ 272887.765230674704071, 2186289.301066467538476, 0.0 ], [ 246972.953354982397286, 2169920.618874864652753, 0.0 ], [ 265211.039108630153351, 2152825.15547952009365, 0.0 ], [ 257126.790871374629205, 2144042.483074376825243, 0.0 ], [ 262835.2572095504147, 2135388.833124061580747, 0.0 ], [ 242448.219463545683539, 2121879.512588363606483, 0.0 ], [ 265271.125515845953487, 2099531.873875960242003, 0.0 ], [ 238699.952158090338344, 2072109.503246034728363, 0.0 ], [ 222885.185349485720508, 2056301.386105624493212, 0.0 ] ] ] } },
{ "type": "Feature", "properties": { }, "geometry": { "type": "Polygon", "coordinates": [ [ [ -1624940.253141230903566, -626754.115995848202147, 0.0 ], [ -1616418.214002831606194, -610227.443246658192948, 0.0 ], [ -1615743.061244594398886, -610567.7746919055935, 0.0 ], [ -1604009.133248761296272, -588973.692395283840597, 0.0 ], [ -1582883.361424318747595, -600129.85470027429983, 0.0 ], [ -1550239.815319218672812, -618244.968728900537826, 0.0 ], [ -1561286.427311360603198, -638581.90133845130913, 0.0 ], [ -1551346.850302037084475, -643803.926776861422695, 0.0 ], [ -1553683.838944849092513, -648337.258783650235273, 0.0 ], [ -1538546.165486935060471, -652922.369771930505522, 0.0 ], [ -1544689.001380459871143, -674028.017467944417149, 0.0 ], [ -1522500.893254063092172, -680230.13584098930005, 0.0 ], [ -1526850.032155440188944, -696789.085480019799434, 0.0 ], [ -1538119.556022800272331, -736134.889350218349136, 0.0 ], [ -1561395.412469865521416, -729633.275252468767576, 0.0 ], [ -1565665.694843646138906, -743757.783511545741931, 0.0 ], [ -1570622.951496694469824, -759338.739034446654841, 0.0 ], [ -1605464.352350137894973, -748782.01681452523917, 0.0 ], [ -1605873.823812589049339, -749576.316817781771533, 0.0 ], [ -1608335.70485799619928, -748311.282729500206187, 0.0 ], [ -1618729.47389275371097, -769594.892169306287542, 0.0 ], [ -1625502.83751898794435, -766294.957834916305728, 0.0 ], [ -1635819.861034021014348, -788639.066619967925362, 0.0 ], [ -1674805.653591487556696, -770570.11258356180042, 0.0 ], [ -1664157.588059515459463, -747462.639723141328432, 0.0 ], [ -1675469.872062014881521, -741951.375831205048598, 0.0 ], [ -1669343.87625736114569, -729379.752906657056883, 0.0 ], [ -1684656.79345365264453, -724722.728389103896916, 0.0 ], [ -1681280.189095631008968, -713591.388572772266343, 0.0 ], [ -1705397.448423981666565, -705682.909097381401807, 0.0 ], [ -1677267.982812421396375, -619168.404090008814819, 0.0 ], [ -1654859.008934936253354, -626491.123474038438872, 0.0 ], [ -1652414.442753394600004, -618432.347856572596356, 0.0 ], [ -1624940.253141230903566, -626754.115995848202147, 0.0 ] ] ] } },
{ "type": "Feature", "properties": { }, "geometry": { "type": "Polygon", "coordinates": [ [ [ -203919.407094781665364, -1270455.983202507952228, 0.0 ], [ -191843.969866775820265, -1272125.676626833388582, 0.0 ], [ -149070.072930327936774, -1278053.41709734685719, 0.0 ], [ -132662.755520273523871, -1279606.662024446995929, 0.0 ], [ -93945.492301143967779, -1283283.809544201474637, 0.0 ], [ -73201.038520132133272, -1284350.417354105971754, 0.0 ], [ -73247.403831210453063, -1285249.597369908820838, 0.0 ], [ -70323.766701329281204, -1285527.267952149035409, 0.0 ], [ -65285.315239443698374, -1286092.902411210117862, 0.0 ], [ -55533.374095558989211, -1286333.369823075598106, 0.0 ], [ -55540.441760581030394, -1287186.896524388343096, 0.0 ], [ -51051.152191209723242, -1287690.880118623375893, 0.0 ], [ -51451.148612101547769, -1291891.783533117501065, 0.0 ], [ -48642.423495032191568, -1292331.003906746162102, 0.0 ], [ -49572.296705582462891, -1299014.095358699792996, 0.0 ], [ -46830.917501333504333, -1299565.35233867703937, 0.0 ], [ -48504.335847677022684, -1308680.068868154892698, 0.0 ], [ -44615.635140858619707, -1309636.908025536453351, 0.0 ], [ -47258.317722179810517, -1321188.562240177299827, 0.0 ], [ -43453.506366172907292, -1322299.437081611249596, 0.0 ], [ -47275.038445078607765, -1336203.27202670625411, 0.0 ], [ -41775.725562707964855, -1338063.182878635823727, 0.0 ], [ -47011.053756516870635, -1354318.853112652199343, 0.0 ], [ -41039.86375811589096, -1356620.735895381309092, 0.0 ], [ -44360.938094654222368, -1365581.728073559934273, 0.0 ], [ -40842.844571637899207, -1367008.155437756562606, 0.0 ], [ -48598.133623771733255, -1386617.556953044142574, 0.0 ], [ -39928.994160992617253, -1390549.67205227795057, 0.0 ], [ -60021.509751214558491, -1435541.914170569274575, 0.0 ], [ -68064.52222772751702, -1453540.779475096380338, 0.0 ], [ -88202.518254478374729, -1498577.524258938618004, 0.0 ], [ -259231.670879979355959, -1422171.309943614527583, 0.0 ], [ -253767.035015756904613, -1409908.273619589395821, 0.0 ], [ -306747.66812352713896, -1388932.390909637324512, 0.0 ], [ -305187.769218815432396, -1384975.766629413934425, 0.0 ], [ -371427.744870344351511, -1360470.19935807143338, 0.0 ], [ -411520.638544452551287, -1353161.006633343640715, 0.0 ], [ -412633.10069983068388, -1361263.584563076728955, 0.0 ], [ -430590.701583496120293, -1358795.445302449632436, 0.0 ], [ -431684.360704427643213, -1370523.061681378865615, 0.0 ], [ -461729.807614875549916, -1367667.985595720820129, 0.0 ], [ -462497.708243647532072, -1383198.314863304141909, 0.0 ], [ -490619.954205909220036, -1382003.123392676003277, 0.0 ], [ -489784.317149739537854, -1365002.09883069479838, 0.0 ], [ -494810.582015944703016, -1364524.476758290315047, 0.0 ], [ -502068.422913476650137, -1374375.993006595643237, 0.0 ], [ -556962.293453271850012, -1333826.730627824086696, 0.0 ], [ -549018.006663872976787, -1323031.348851745948195, 0.0 ], [ -557866.954247734043747, -1317058.899774792604148, 0.0 ], [ -527241.051378676434979, -1271416.050837266258895, 0.0 ], [ -525585.17228328215424, -1262270.152625901158899, 0.0 ], [ -516811.381414522125851, -1213847.111274878494442, 0.0 ], [ -509798.048883398703765, -1214998.093830053927377, 0.0 ], [ -507372.311347846058197, -1204280.620690979994833, 0.0 ], [ -501593.34181027818704, -1205477.739962324034423, 0.0 ], [ -499403.861046457546763, -1197439.050567914731801, 0.0 ], [ -495453.284959364507813, -1198432.47121837339364, 0.0 ], [ -493701.592520100413822, -1192949.842433156212792, 0.0 ], [ -490348.625321621075273, -1193947.449090523412451, 0.0 ], [ -489242.918385473662056, -1190942.404638651292771, 0.0 ], [ -486216.612765604222659, -1191986.650674459291622, 0.0 ], [ -485919.510980393621139, -1191230.176276068203151, 0.0 ], [ -457496.682818581466563, -1202398.296318173641339, 0.0 ], [ -420426.3674537751358, -1216046.907865869347006, 0.0 ], [ -418512.238418813620228, -1216752.313316693995148, 0.0 ], [ -365789.033035506785382, -1233627.330648506758735, 0.0 ], [ -312380.691530084062833, -1248221.708661351585761, 0.0 ], [ -308864.193635182455182, -1249020.735411962261423, 0.0 ], [ -258389.102560011204332, -1260506.06477955612354, 0.0 ], [ -250619.270867949846433, -1261923.271509764483199, 0.0 ], [ -203919.407094781665364, -1270455.983202507952228, 0.0 ] ] ] } },
{ "type": "Feature", "properties": { }, "geometry": { "type": "Polygon", "coordinates": [ [ [ 2221023.21043168194592, 605483.314239540719427, 0.0 ], [ 2207224.282794718630612, 566927.231443790020421, 0.0 ], [ 2177074.007290015462786, 577739.354681708966382, 0.0 ], [ 2163002.153362550307065, 558962.152961600921117, 0.0 ], [ 2103843.490161315537989, 603176.491909110103734, 0.0 ], [ 2083968.716185810044408, 574118.489058560226113, 0.0 ], [ 2062054.255518360529095, 589057.355518937809393, 0.0 ], [ 2044896.567049709148705, 547025.339106283965521, 0.0 ], [ 1997684.044741255696863, 566172.068209005868994, 0.0 ], [ 1938767.509625680511817, 590286.136550768278539, 0.0 ], [ 1907781.853083235677332, 602977.859360883128829, 0.0 ], [ 1904285.532755190040916, 596441.091881849220954, 0.0 ], [ 1851421.253039341187105, 624612.419938854523934, 0.0 ], [ 1839079.209073650185019, 598842.341227228054777, 0.0 ], [ 1837325.523449201136827, 599681.122384713962674, 0.0 ], [ 1823868.622482600156218, 570478.224918957450427, 0.0 ], [ 1793314.127873018849641, 584280.593980891862884, 0.0 ], [ 1735790.713081183377653, 610841.999213418108411, 0.0 ], [ 1727924.625974728260189, 614476.774659476941451, 0.0 ], [ 1722541.394261389970779, 600153.693835681769997, 0.0 ], [ 1711041.081528287380934, 604471.745335072395392, 0.0 ], [ 1693481.413488286547363, 570382.79320628545247, 0.0 ], [ 1651861.663798121735454, 591589.954877398908138, 0.0 ], [ 1595726.886423186631873, 620560.151007136213593, 0.0 ], [ 1592931.856120098382235, 622071.155736034736037, 0.0 ], [ 1608147.506830507656559, 651606.429446431924589, 0.0 ], [ 1566917.138032930670306, 665082.200710378354415, 0.0 ], [ 1570846.539532723138109, 677818.989615378668532, 0.0 ], [ 1590431.54898942890577, 737873.774761992506683, 0.0 ], [ 1592687.208260091021657, 744409.986893234308809, 0.0 ], [ 1639877.719149416312575, 728990.121732600964606, 0.0 ], [ 1642222.971205338370055, 728222.411334838951007, 0.0 ], [ 1646524.517980343196541, 737542.865665550809354, 0.0 ], [ 1660381.694899026770145, 774184.102285316679627, 0.0 ], [ 1662983.895593936089426, 773206.520016783382744, 0.0 ], [ 1664024.303189015947282, 775460.842004309874028, 0.0 ], [ 1695805.768166480353102, 760876.156448075082153, 0.0 ], [ 1706934.10731965280138, 756695.515402344753966, 0.0 ], [ 1710127.91125809494406, 755493.604516976862215, 0.0 ], [ 1730423.526831053663045, 805039.540786424418911, 0.0 ], [ 1792733.043437548680231, 779648.402533994871192, 0.0 ], [ 1802992.74613906769082, 801124.514644430135377, 0.0 ], [ 1805803.269244428956881, 806792.680645426735282, 0.0 ], [ 1820732.108221670147032, 799648.258764160098508, 0.0 ], [ 1831395.291588778607547, 829320.357759291306138, 0.0 ], [ 1882836.316480988869444, 810961.896177480230108, 0.0 ], [ 1887937.995976310456172, 820477.217311026994139, 0.0 ], [ 1890513.008265314623713, 819104.189564589876682, 0.0 ], [ 1897638.246458766283467, 840389.350155829219148, 0.0 ], [ 1967720.364152783062309, 817102.04992781416513, 0.0 ], [ 1982084.514318914152682, 841264.981013219221495, 0.0 ], [ 2025252.461170783732086, 815772.801668120315298, 0.0 ], [ 2031209.512314616469666, 812248.843453920213506, 0.0 ], [ 2047116.196944183204323, 867768.769541219458915, 0.0 ], [ 2267976.75977420154959, 804863.777119685779326, 0.0 ], [ 2255436.312026805244386, 760772.823902677628212, 0.0 ], [ 2293076.925328515004367, 732531.338975880644284, 0.0 ], [ 2250180.306388082914054, 675290.94470324087888, 0.0 ], [ 2248637.149709662888199, 670639.390275502228178, 0.0 ], [ 2242278.323336298111826, 651525.762508147745393, 0.0 ], [ 2226343.985115975141525, 603764.673597493208945, 0.0 ], [ 2221023.21043168194592, 605483.314239540719427, 0.0 ] ] ] } },
{ "type": "Feature", "properties": { }, "geometry": { "type": "Polygon", "coordinates": [ [ [ 1150099.907988914987072, -2031014.971406939905137, 0.0 ], [ 1151772.117403089301661, -2006516.227323131868616, 0.0 ], [ 1199865.448310319101438, -2009545.874460664810613, 0.0 ], [ 1222883.472908523166552, -1959023.432366427499801, 0.0 ], [ 1244617.441678996197879, -1968675.388891379814595, 0.0 ], [ 1289335.528345172759145, -1988977.717628434533253, 0.0 ], [ 1357242.014087067916989, -1990318.220242079813033, 0.0 ], [ 1356733.271063581341878, -2019592.090732253622264, 0.0 ], [ 1361635.885842839255929, -2021819.312524417880923, 0.0 ], [ 1405021.009620767086744, -2041541.083181695314124, 0.0 ], [ 1444460.478586701210588, -2040602.099222701275721, 0.0 ], [ 1447706.294170039705932, -2167094.784385673236102, 0.0 ], [ 1469071.56979994662106, -2178102.477029818575829, 0.0 ], [ 1448999.800981344887987, -2217504.040745918173343, 0.0 ], [ 1451383.987515083746985, -2310418.178607014473528, 0.0 ], [ 1400427.210553216049448, -2311741.906055438797921, 0.0 ], [ 1383550.24040624499321, -2312162.832052649464458, 0.0 ], [ 1377421.50399145623669, -2322982.881651987787336, 0.0 ], [ 1352254.7159742731601, -2367307.02248898614198, 0.0 ], [ 1236969.53153988532722, -2301831.440481150057167, 0.0 ], [ 1229786.300533859990537, -2301692.325254417490214, 0.0 ], [ 1229855.038426991552114, -2297790.803520356770605, 0.0 ], [ 1213373.689280094113201, -2288430.312552138697356, 0.0 ], [ 1230555.197599066887051, -2258050.187352190259844, 0.0 ], [ 1230640.279254055581987, -2253221.003462714143097, 0.0 ], [ 1231854.768427363131195, -2193816.696299888659269, 0.0 ], [ 1194552.126202223822474, -2174717.670992543455213, 0.0 ], [ 1191568.202792760217562, -2174531.888071870431304, 0.0 ], [ 1141101.159734442597255, -2171342.933270961046219, 0.0 ], [ 1142553.898467427119613, -2148094.477347169537097, 0.0 ], [ 1106224.552866919431835, -2129493.781802986748517, 0.0 ], [ 1139814.806202054256573, -2063471.90183136658743, 0.0 ], [ 1134343.002052908530459, -2062894.703205894911662, 0.0 ], [ 1114307.729488114593551, -2060764.0662480101455, 0.0 ], [ 1064234.129490227438509, -2055396.147304761921987, 0.0 ], [ 1065798.955701255705208, -2039482.05174615024589, 0.0 ], [ 1067826.120442896848544, -2022253.055560385808349, 0.0 ], [ 1150099.907988914987072, -2031014.971406939905137, 0.0 ] ] ] } }
]
}
