{
"type": "FeatureCollection",
"name": "swot_science_hr_Apr2025-v10b_perPass",
"crs": { "type": "name", "properties": { "name": "urn:ogc:def:crs:EPSG::3031" } },
"features": [
{ "type": "Feature", "properties": { }, "geometry": { "type": "Polygon", "coordinates": [ [ [ -1374345.451547960285097, -535723.542398867779411, 0.0 ], [ -1394801.188177227508277, -532813.941794895683415, 0.0 ], [ -1400329.655044966610149, -537721.050748392473906, 0.0 ], [ -1405576.516824006801471, -531829.785771464696154, 0.0 ], [ -1406617.822968602646142, -532838.15876158059109, 0.0 ], [ -1410460.597120351623744, -552104.955943012028001, 0.0 ], [ -1429436.173989085480571, -548560.07069971296005, 0.0 ], [ -1435635.97727772500366, -554830.564899752032943, 0.0 ], [ -1444110.880343043711036, -546478.494417340727523, 0.0 ], [ -1446049.482488686451688, -548617.731748706544749, 0.0 ], [ -1450991.485099629499018, -569514.996636423864402, 0.0 ], [ -1462553.824143283767626, -566830.186468457221054, 0.0 ], [ -1463448.37578870751895, -567817.319531848537736, 0.0 ], [ -1465231.731281032087281, -566208.368315127445385, 0.0 ], [ -1479031.538295709528029, -563004.011303185601719, 0.0 ], [ -1495118.595992561429739, -582384.077978437300771, 0.0 ], [ -1497119.430972435045987, -589147.585903749102727, 0.0 ], [ -1520032.982406194554642, -582765.857176049612463, 0.0 ], [ -1532055.875617862213403, -598601.92388794850558, 0.0 ], [ -1542581.794636486331001, -590615.866211945423856, 0.0 ], [ -1549397.755803240928799, -611194.091915460070595, 0.0 ], [ -1565835.388513105222955, -605835.680931316805072, 0.0 ], [ -1573174.467492958996445, -616430.094760295469314, 0.0 ], [ -1596854.328993173781782, -600102.353498595533893, 0.0 ], [ -1606413.576415625633672, -615270.587524288101122, 0.0 ], [ -1587750.599951160838827, -624678.232942715636455, 0.0 ], [ -1551346.850302037084475, -643803.926776861422695, 0.0 ], [ -1605873.823812589049339, -749576.316817781771533, 0.0 ], [ -1615499.485739339608699, -744630.184070088318549, 0.0 ], [ -1635819.861034021014348, -788639.066619967925362, 0.0 ], [ -1674805.653591487556696, -770570.11258356180042, 0.0 ], [ -1654006.051492915954441, -725432.689306333661079, 0.0 ], [ -1653786.333842960419133, -724956.54139986273367, 0.0 ], [ -1670960.368057765066624, -716131.688243137556128, 0.0 ], [ -1648241.872388066258281, -671964.585593326948583, 0.0 ], [ -1639154.465700588421896, -654319.54200961033348, 0.0 ], [ -1627593.522809496847913, -631899.565202388796024, 0.0 ], [ -1681304.759079513605684, -598135.979194858227856, 0.0 ], [ -1658384.260614563710988, -561695.84227702266071, 0.0 ], [ -1657994.294330811360851, -560501.070920276804827, 0.0 ], [ -1701496.630920628318563, -544159.301059757708572, 0.0 ], [ -1696669.268642979906872, -531277.942990981624462, 0.0 ], [ -1697607.561995055992156, -530630.970833643223159, 0.0 ], [ -1695026.871625121682882, -526895.362430148175918, 0.0 ], [ -1679871.183503885054961, -486453.847118094272446, 0.0 ], [ -1710686.87697225692682, -463073.854841028747614, 0.0 ], [ -1710202.686289130942896, -462433.782769558136351, 0.0 ], [ -1718415.657173929736018, -458939.034164938901085, 0.0 ], [ -1699236.733179283328354, -413781.385127031244338, 0.0 ], [ -1721204.222395823104307, -395597.040836041385774, 0.0 ], [ -1710397.676703758537769, -382522.957164826104417, 0.0 ], [ -1730856.71888624317944, -372759.077599709213246, 0.0 ], [ -1715430.360905080568045, -340478.057511636754498, 0.0 ], [ -1729124.812218573875725, -328122.862937137717381, 0.0 ], [ -1707340.359125668182969, -303967.812438490625937, 0.0 ], [ -1739345.517337618162856, -286968.65074821235612, 0.0 ], [ -1688049.338435961632058, -190037.817874876520364, 0.0 ], [ -1662456.183360390132293, -203595.531190769572277, 0.0 ], [ -1642819.843950449489057, -183662.617328568885569, 0.0 ], [ -1641221.011028886307031, -185188.421616925741546, 0.0 ], [ -1641018.005082686431706, -184763.613698214292526, 0.0 ], [ -1626504.708176469663158, -191661.756541518203449, 0.0 ], [ -1615040.957516323076561, -180520.114061289001256, 0.0 ], [ -1604669.653869608417153, -191118.894822657923214, 0.0 ], [ -1600064.912705642171204, -180276.822272037708899, 0.0 ], [ -1581122.87429558695294, -188288.619275850243866, 0.0 ], [ -1565183.697032448835671, -174091.195054173324024, 0.0 ], [ -1562563.818988855229691, -176959.262898356158985, 0.0 ], [ -1539569.015967190731317, -185527.705613485246431, 0.0 ], [ -1534166.849766380852088, -181120.878045438788831, 0.0 ], [ -1531791.53806382464245, -173843.442780393001158, 0.0 ], [ -1527106.411527370335534, -175361.311842255992815, 0.0 ], [ -1519713.262208671309054, -169330.335929770575603, 0.0 ], [ -1517689.460404745768756, -171708.188907185249263, 0.0 ], [ -1510265.094839653931558, -180817.496080273995176, 0.0 ], [ -1507008.480023499345407, -181872.561474428046495, 0.0 ], [ -1504187.685787397203967, -171747.171533097076463, 0.0 ], [ -1493256.562212143559009, -174770.627653761155671, 0.0 ], [ -1480172.275620156666264, -165012.510504375037272, 0.0 ], [ -1474847.527195356786251, -172078.239116148411995, 0.0 ], [ -1464001.195539603708312, -174576.64553144434467, 0.0 ], [ -1460144.270161725347862, -171952.907252735632937, 0.0 ], [ -1459692.746639612130821, -169533.887948618357768, 0.0 ], [ -1457252.168704969109967, -169985.506653926393483, 0.0 ], [ -1444925.350274311145768, -161599.981344904343132, 0.0 ], [ -1436658.142303217668086, -173481.098309140623314, 0.0 ], [ -1413477.594752362696454, -159142.221953450702131, 0.0 ], [ -1407031.057583598652855, -169217.15429108767421, 0.0 ], [ -1385777.956913680071011, -157312.057050393050304, 0.0 ], [ -1380991.296997797675431, -165488.674549852003111, 0.0 ], [ -1361749.551400692202151, -155780.408540055097546, 0.0 ], [ -1359114.523177864728495, -160731.388777395826764, 0.0 ], [ -1344269.371138605754822, -190892.499229217180982, 0.0 ], [ -1343421.833160256734118, -191049.332575552136404, 0.0 ], [ -1343619.527645258232951, -192212.795668580947677, 0.0 ], [ -1342456.929003064986318, -194574.864171860564966, 0.0 ], [ -1344167.499459235928953, -195437.695855239784578, 0.0 ], [ -1347639.60099954972975, -215871.558728910516948, 0.0 ], [ -1348902.951123830396682, -222697.176593366981251, 0.0 ], [ -1348841.807332683354616, -222806.412640717986505, 0.0 ], [ -1335286.06580345868133, -247753.062230696959887, 0.0 ], [ -1333872.143328769830987, -247952.215307705831947, 0.0 ], [ -1337703.803665632847697, -277907.08953702141298, 0.0 ], [ -1338072.796061402419582, -280525.461676709179301, 0.0 ], [ -1335748.715107006020844, -284288.15953365736641, 0.0 ], [ -1323487.59693054179661, -304830.144589387346059, 0.0 ], [ -1340171.892445579869673, -315134.703409496461973, 0.0 ], [ -1324538.218351946212351, -338167.781359356769826, 0.0 ], [ -1315308.202342240838334, -338865.687338021176402, 0.0 ], [ -1315788.049270786577836, -347678.628252887283452, 0.0 ], [ -1316033.135595977539197, -350924.099868698685896, 0.0 ], [ -1310914.692920336034149, -358766.496323386731092, 0.0 ], [ -1316933.909074924420565, -362852.283768470864743, 0.0 ], [ -1318373.413070460548624, -381914.421791544824373, 0.0 ], [ -1306447.373368834611028, -397954.581815124372952, 0.0 ], [ -1299630.551048157736659, -398175.824573375633918, 0.0 ], [ -1299736.181223078630865, -407071.863864214450587, 0.0 ], [ -1296119.392474119085819, -412155.579545602726284, 0.0 ], [ -1299969.025144862476736, -415018.424584464577492, 0.0 ], [ -1300729.717685932293534, -438519.207150552188978, 0.0 ], [ -1288750.305315951816738, -453421.258095837954897, 0.0 ], [ -1293009.208751652156934, -456883.23368792590918, 0.0 ], [ -1281283.867517384467646, -456759.172447496443056, 0.0 ], [ -1280936.044671588344499, -468099.911771382787265, 0.0 ], [ -1281036.589775508036837, -491828.787157731771003, 0.0 ], [ -1302716.232011352200061, -492059.577864770777524, 0.0 ], [ -1303192.484248321503401, -502792.814990412560292, 0.0 ], [ -1327699.91233475622721, -501990.433794149430469, 0.0 ], [ -1328805.895351484417915, -515199.736117404943798, 0.0 ], [ -1361666.037121443776414, -512692.966788226563949, 0.0 ], [ -1372094.689432718325406, -521170.205191277316771, 0.0 ], [ -1372847.937201914610341, -526480.730099416803569, 0.0 ], [ -1374345.451547960285097, -535723.542398867779411, 0.0 ] ] ] } },
{ "type": "Feature", "properties": { }, "geometry": { "type": "Polygon", "coordinates": [ [ [ 113006.985206454846775, -1281522.967513603856787, 0.0 ], [ 113067.401168475407758, -1282130.322403339436278, 0.0 ], [ 120441.673040447902167, -1281234.362248037010431, 0.0 ], [ 182606.1861263140745, -1273700.755061305593699, 0.0 ], [ 182899.860311561875278, -1276127.333742085611448, 0.0 ], [ 207992.633513910317561, -1271177.129622042179108, 0.0 ], [ 208715.157435269822599, -1274618.32461678632535, 0.0 ], [ 220524.377830958605045, -1271679.10426958440803, 0.0 ], [ 221827.746662188495975, -1276778.750135155860335, 0.0 ], [ 234666.548210720444331, -1272897.473949247039855, 0.0 ], [ 236815.006308456446277, -1280005.347915668040514, 0.0 ], [ 254401.543063955934485, -1274166.506785869831219, 0.0 ], [ 257312.616992687893799, -1282482.597024975577369, 0.0 ], [ 276321.91350997396512, -1275046.697706937324256, 0.0 ], [ 280153.168206391856074, -1284640.481455114670098, 0.0 ], [ 287345.700762229971588, -1281425.719057557871565, 0.0 ], [ 335885.288149826868903, -1389170.288855042308569, 0.0 ], [ 333599.595517432549968, -1390205.154281330062076, 0.0 ], [ 339390.254847350704949, -1401700.401552783325315, 0.0 ], [ 334849.767825922870543, -1403997.425503462553024, 0.0 ], [ 342520.040159994910937, -1417709.675542891724035, 0.0 ], [ 336362.734630506136455, -1421164.221288481261581, 0.0 ], [ 346138.815169152687304, -1436988.26833178056404, 0.0 ], [ 342768.88326008169679, -1439072.831821157597005, 0.0 ], [ 348377.316908851789776, -1447724.855270080501214, 0.0 ], [ 338597.546844893251546, -1454075.93655384844169, 0.0 ], [ 351928.333088555780705, -1472803.837764453142881, 0.0 ], [ 333203.556421035842504, -1486173.064430716447532, 0.0 ], [ 349697.861107865464874, -1507334.867766434093937, 0.0 ], [ 323983.80769227957353, -1527431.283596296794713, 0.0 ], [ 343889.523968932160642, -1550795.362903304863721, 0.0 ], [ 296454.327746188384481, -1591324.472841607872397, 0.0 ], [ 320982.025672845426016, -1617687.005282165016979, 0.0 ], [ 262886.865645941463299, -1671674.071213273098692, 0.0 ], [ 236078.182238755049184, -1642910.460331388283521, 0.0 ], [ 204346.625747962476453, -1670022.22214406915009, 0.0 ], [ 179196.68000839650631, -1640587.396237141219899, 0.0 ], [ 151201.385395392688224, -1662466.680406374158338, 0.0 ], [ 120698.116714344665525, -1623477.358116996707395, 0.0 ], [ 108514.876230068970472, -1607891.91697412612848, 0.0 ], [ 78078.64909903575608, -1568924.493320120964199, 0.0 ], [ 82459.377926651533926, -1565391.539715753868222, 0.0 ], [ 81642.165342082094867, -1564074.761416009394452, 0.0 ], [ 70750.349088732618839, -1570185.596312791807577, 0.0 ], [ 56491.639035069398233, -1544818.285838783485815, 0.0 ], [ 45251.030149152284139, -1550504.888995959656313, 0.0 ], [ 32996.941773464699509, -1526305.38447025208734, 0.0 ], [ 24862.564029969769763, -1529988.288361966377124, 0.0 ], [ 14503.373482069127931, -1507123.103220612974837, 0.0 ], [ -16614.831554544944083, -1519581.048048664582893, 0.0 ], [ -25381.075868914977036, -1497777.044584112940356, 0.0 ], [ -51586.510468820408278, -1506992.502310470445082, 0.0 ], [ -59122.202437407722755, -1485618.998131098924205, 0.0 ], [ -89483.767937269367394, -1494841.617848756490275, 0.0 ], [ -95550.992769141201279, -1474936.427387890173122, 0.0 ], [ -124333.041217415651772, -1482339.24312492320314, 0.0 ], [ -129324.995015750944731, -1462994.369499455904588, 0.0 ], [ -158576.527050113072619, -1469161.40624449797906, 0.0 ], [ -162409.469900514755864, -1451124.316100497031584, 0.0 ], [ -183821.362437361298362, -1454703.469211535295472, 0.0 ], [ -186586.914724681410007, -1438206.384223993634805, 0.0 ], [ -208185.446438170212787, -1440866.939819487277418, 0.0 ], [ -209155.816174558975035, -1433004.297598214587197, 0.0 ], [ -218981.815081530803582, -1434002.829712426289916, 0.0 ], [ -220441.528017931850627, -1419621.885333016747609, 0.0 ], [ -241042.391824608930619, -1420813.964517294196412, 0.0 ], [ -241775.740044784033671, -1408168.915472656022757, 0.0 ], [ -261798.898558442364447, -1408459.206407408230007, 0.0 ], [ -261955.514925160619896, -1397780.537961264373735, 0.0 ], [ -280737.577695696032606, -1397261.528603008482605, 0.0 ], [ -280477.71465799107682, -1388197.051834779791534, 0.0 ], [ -297432.94627851160476, -1386989.718069336842746, 0.0 ], [ -296894.295896912633907, -1379515.52091375621967, 0.0 ], [ -322544.559673431853298, -1376534.937185772461817, 0.0 ], [ -321925.248199366615154, -1371179.450883181998506, 0.0 ], [ -356680.266197824152187, -1365692.907725414261222, 0.0 ], [ -355929.028598943259567, -1360988.928756368346512, 0.0 ], [ -404420.9833163304138, -1351150.47379776625894, 0.0 ], [ -405491.855909707315732, -1357864.625280676409602, 0.0 ], [ -419634.134830079216044, -1355622.823244993807748, 0.0 ], [ -420778.739294630882796, -1365555.761036032810807, 0.0 ], [ -443879.647130290803034, -1362873.472778254421428, 0.0 ], [ -444825.787168157403357, -1376149.855019821086898, 0.0 ], [ -500410.368530316220131, -1372344.3847117414698, 0.0 ], [ -499284.212468578130938, -1356440.348327413666993, 0.0 ], [ -519685.563849343569018, -1354071.510460056597367, 0.0 ], [ -518076.732942962087691, -1340017.925470743561164, 0.0 ], [ -538401.612131757545285, -1336796.071638204157352, 0.0 ], [ -530682.966040085419081, -1288129.54098511277698, 0.0 ], [ -527595.622420782106929, -1268682.493325789226219, 0.0 ], [ -519871.843453566660173, -1220077.000905126333237, 0.0 ], [ -514718.79424730973551, -1220827.898643385153264, 0.0 ], [ -512250.935830900678411, -1208711.30698626418598, 0.0 ], [ -505863.19517542491667, -1209920.101765268482268, 0.0 ], [ -503525.943549132149201, -1200542.701031572185457, 0.0 ], [ -498370.299535055761226, -1201743.739933086792007, 0.0 ], [ -496374.017968613945413, -1194994.954238665523008, 0.0 ], [ -492433.596608981315512, -1196090.677151175914332, 0.0 ], [ -490983.247439496335573, -1191869.092551656533033, 0.0 ], [ -489733.28023626387585, -1192275.089738973649219, 0.0 ], [ -489242.918385473662056, -1190942.404638651292771, 0.0 ], [ -479189.388047431537416, -1194411.43933641910553, 0.0 ], [ -431486.474824931530748, -1211974.778786330018193, 0.0 ], [ -413322.201877988991328, -1218220.104231902398169, 0.0 ], [ -413636.564724106399808, -1219133.958374374778941, 0.0 ], [ -356413.063519510033075, -1236094.716657149838284, 0.0 ], [ -356634.953918670129497, -1236842.915910854004323, 0.0 ], [ -298738.937102616007905, -1251326.378191463649273, 0.0 ], [ -298883.287981485424098, -1251903.017769626574591, 0.0 ], [ -240421.949435067741433, -1263882.694472111528739, 0.0 ], [ -240503.969027103681583, -1264282.630263169761747, 0.0 ], [ -181585.553039006801555, -1273736.673255305271596, 0.0 ], [ -181620.811352900549537, -1273956.181187306530774, 0.0 ], [ -122354.314583177969325, -1280867.436570337275043, 0.0 ], [ -122358.522929966653464, -1280903.473889512941241, 0.0 ], [ -66319.987350674549816, -1285005.737654344877228, 0.0 ], [ -65800.695363784368965, -1285021.193500873632729, 0.0 ], [ -65801.368277436922654, -1285043.702819028636441, 0.0 ], [ -62853.694618586516299, -1285259.485310777323321, 0.0 ], [ -63007.794533194879477, -1287359.839552397141233, 0.0 ], [ -6162.603053488627666, -1286606.053090723464265, 0.0 ], [ -6133.838770400565409, -1288797.434457286959514, 0.0 ], [ 53482.085163893418212, -1285439.001174970762804, 0.0 ], [ 53594.615542038198328, -1287441.486894626403227, 0.0 ], [ 113006.985206454846775, -1281522.967513603856787, 0.0 ] ] ] } },
{ "type": "Feature", "properties": { }, "geometry": { "type": "Polygon", "coordinates": [ [ [ 2123442.910438472870737, 555891.459626023191959, 0.0 ], [ 2063818.357739421073347, 578769.288597170263529, 0.0 ], [ 2004283.181841628160328, 601630.264219390228391, 0.0 ], [ 1944834.299183349823579, 624475.831769542885013, 0.0 ], [ 1942309.386428420664743, 625446.886399826267734, 0.0 ], [ 1935459.664032796164975, 609648.245689764618874, 0.0 ], [ 1915567.522253182483837, 563852.514706187415868, 0.0 ], [ 1857312.850820372579619, 589201.884943678043783, 0.0 ], [ 1799134.698689561570063, 614536.582866629469208, 0.0 ], [ 1779243.711423084139824, 623204.874269432388246, 0.0 ], [ 1775614.691868431400508, 615752.766484870691784, 0.0 ], [ 1753810.36772209755145, 571043.995050793630071, 0.0 ], [ 1713952.607855319976807, 590241.417396828066558, 0.0 ], [ 1665006.517670614644885, 614159.912062916322611, 0.0 ], [ 1664168.140824216650799, 612614.355206273612566, 0.0 ], [ 1640485.81494679953903, 569009.462853443925269, 0.0 ], [ 1630463.08752655913122, 574254.0982963090064, 0.0 ], [ 1595568.907323453342542, 593561.998680035001598, 0.0 ], [ 1618984.217135989340022, 636698.965204236330464, 0.0 ], [ 1602633.913943457882851, 644710.017520030261949, 0.0 ], [ 1654887.546970399329439, 751773.901851678150706, 0.0 ], [ 1675531.239453954156488, 741761.497972017619759, 0.0 ], [ 1696425.522340635769069, 789757.196321136550978, 0.0 ], [ 1753193.245288617676124, 765098.929293773835525, 0.0 ], [ 1773785.240262406878173, 818678.463880726485513, 0.0 ], [ 1877156.63583564478904, 779204.817169826477766, 0.0 ], [ 1897638.246458766283467, 840389.350155829219148, 0.0 ], [ 1963763.435860354220495, 818416.881444875965826, 0.0 ], [ 1974109.096569082001224, 851742.546687061781995, 0.0 ], [ 2215769.538582478649914, 777239.445705168414861, 0.0 ], [ 2236701.725800352171063, 857049.193886536522768, 0.0 ], [ 2252836.333032017108053, 852868.552547072293237, 0.0 ], [ 2240081.257099266164005, 804049.440090969554149, 0.0 ], [ 2234967.34358640993014, 784545.072039545280859, 0.0 ], [ 2231748.953317012637854, 772313.045920082484372, 0.0 ], [ 2280609.878117203712463, 757249.387242111843079, 0.0 ], [ 2265767.145570051856339, 709033.235969091416337, 0.0 ], [ 2259819.20578183978796, 689770.454576628864743, 0.0 ], [ 2244911.250084772706032, 641636.01575062063057, 0.0 ], [ 2239522.123407685663551, 643264.414717869600281, 0.0 ], [ 2226343.985115975141525, 603764.673597493208945, 0.0 ], [ 2214783.729813798330724, 607498.702150406199507, 0.0 ], [ 2194330.436134367715567, 614341.621338891098276, 0.0 ], [ 2190973.892377506010234, 605526.32692623953335, 0.0 ], [ 2183805.981283837463707, 586746.824217680143192, 0.0 ], [ 2165852.17908830055967, 539821.943102916586213, 0.0 ], [ 2123442.910438472870737, 555891.459626023191959, 0.0 ] ] ] } },
{ "type": "Feature", "properties": { }, "geometry": { "type": "Polygon", "coordinates": [ [ [ -2007448.347820467082784, 449896.198323316173628, 0.0 ], [ -2023604.722333740442991, 473340.934756459726486, 0.0 ], [ -2077303.381616561673582, 432892.747171122871805, 0.0 ], [ -2216647.813263565301895, 616872.159502622089349, 0.0 ], [ -2176531.032008907757699, 647211.648079803795554, 0.0 ], [ -2160490.06071609351784, 659322.779260621056892, 0.0 ], [ -2154750.800042591057718, 663648.805101908510551, 0.0 ], [ -2170833.351630803197622, 686986.416076963650994, 0.0 ], [ -2129471.742230365518481, 715545.33579687087331, 0.0 ], [ -2112934.173825475387275, 726944.82901395985391, 0.0 ], [ -2071575.949400558602065, 755404.996463775401935, 0.0 ], [ -2068269.981019296683371, 750719.610160194453783, 0.0 ], [ -2032676.428137050708756, 698909.754424043232575, 0.0 ], [ -2030175.531443926505744, 700479.814761991379783, 0.0 ], [ -2013202.644879207480699, 711118.005161003326066, 0.0 ], [ -1970759.669452809728682, 737676.881775715039112, 0.0 ], [ -1968696.04164723563008, 734473.716790573322214, 0.0 ], [ -1934943.833090629661456, 680448.506406373577192, 0.0 ], [ -1932830.498069768305868, 677063.843063788139261, 0.0 ], [ -1917519.999417119426653, 685753.123965237638913, 0.0 ], [ -1874071.984573502093554, 710372.667760438169353, 0.0 ], [ -1847073.112408506916836, 662688.571840179269202, 0.0 ], [ -1844208.751001621130854, 664153.032159980735742, 0.0 ], [ -1882031.835725828772411, 746705.026015310548246, 0.0 ], [ -1939358.032491807593033, 717362.46046381641645, 0.0 ], [ -1962508.15052049071528, 762531.100078736315481, 0.0 ], [ -2022566.154082776047289, 728409.561141082900576, 0.0 ], [ -2050746.561907869763672, 777843.021424972219393, 0.0 ], [ -2113442.977894006296992, 738513.06456010218244, 0.0 ], [ -2202698.56843024212867, 879717.072257671155967, 0.0 ], [ -2271402.487498554866761, 832275.770577711053193, 0.0 ], [ -2334436.228182616177946, 922996.3584249940468, 0.0 ], [ -2407069.455991930793971, 867994.28549497295171, 0.0 ], [ -2446094.456046469509602, 919357.954869504435919, 0.0 ], [ -2405649.530597858596593, 950064.700649566831999, 0.0 ], [ -2389475.206190730910748, 962319.841010378557257, 0.0 ], [ -2371305.082391704898328, 976059.433705088449642, 0.0 ], [ -2597970.651628218125552, 1302285.252809539902955, 0.0 ], [ -2555868.604963220655918, 1331576.817206497769803, 0.0 ], [ -2539030.986444744281471, 1343263.24485815805383, 0.0 ], [ -2508896.740638858173043, 1364128.287350960774347, 0.0 ], [ -2577979.64579298440367, 1473418.73081280104816, 0.0 ], [ -2534566.044046618975699, 1500947.346770233940333, 0.0 ], [ -2517204.642222196795046, 1511928.13847519387491, 0.0 ], [ -2483548.453743051737547, 1533160.876674808561802, 0.0 ], [ -2545829.311538616660982, 1641281.394566575298086, 0.0 ], [ -2501180.993000848218799, 1666985.373831779463217, 0.0 ], [ -2483326.775719581637532, 1677235.892333406722173, 0.0 ], [ -2438669.742431747727096, 1702804.303378265351057, 0.0 ], [ -2416162.065391317009926, 1663636.659751582890749, 0.0 ], [ -2383741.014730414841324, 1606858.111414292128757, 0.0 ], [ -2351399.141449695918709, 1550192.510482798330486, 0.0 ], [ -2327929.566197672393173, 1508815.362374945310876, 0.0 ], [ -2420912.184463393408805, 1455535.745550591265783, 0.0 ], [ -2413535.371803925838321, 1443812.742273003794253, 0.0 ], [ -2378873.150230550207198, 1388704.104023472173139, 0.0 ], [ -2344291.197059590835124, 1333697.982143343426287, 0.0 ], [ -2325174.386621335055679, 1303276.447941177757457, 0.0 ], [ -2300725.522692325524986, 1317295.067703837761655, 0.0 ], [ -2283074.203318319749087, 1327392.553782788105309, 0.0 ], [ -2238929.380069838836789, 1352586.892660559620708, 0.0 ], [ -2222790.234762889798731, 1324590.6071032572072, 0.0 ], [ -2190819.822922209277749, 1268438.660545721882954, 0.0 ], [ -2172613.387290657032281, 1236444.655998317757621, 0.0 ], [ -2154582.724532608408481, 1245755.844662541989237, 0.0 ], [ -2136599.123485934454948, 1255021.815726416418329, 0.0 ], [ -2091627.743978005368263, 1278140.613315250258893, 0.0 ], [ -2077378.549293386517093, 1250775.792443089419976, 0.0 ], [ -2048041.434421012178063, 1193571.57356270425953, 0.0 ], [ -2035219.473191406810656, 1168555.407594077987596, 0.0 ], [ -2023585.559165990212932, 1173929.881223228527233, 0.0 ], [ -2005295.659060158999637, 1182360.646782878087834, 0.0 ], [ -1959562.146775869419798, 1203394.820845728740096, 0.0 ], [ -1943099.882424449082464, 1168003.654174097813666, 0.0 ], [ -1916416.201132448622957, 1109840.743406448513269, 0.0 ], [ -1889786.27821677736938, 1051756.790277077816427, 0.0 ], [ -1884845.793221359839663, 1040634.656146252993494, 0.0 ], [ -1953611.960571742150933, 1009007.852313149604015, 0.0 ], [ -1944258.173012512503192, 990447.193459888221696, 0.0 ], [ -2012859.531946985516697, 955229.190130788949318, 0.0 ], [ -2002973.777421828126535, 937765.318815665086731, 0.0 ], [ -2071464.104713825508952, 898779.309622410335578, 0.0 ], [ -2070318.478085549082607, 896949.693000615923665, 0.0 ], [ -2036381.733517466578633, 842721.292097807046957, 0.0 ], [ -2018351.207487560808659, 813660.640818222891539, 0.0 ], [ -2014633.09137176303193, 815778.467871401109733, 0.0 ], [ -1997207.931234112242237, 825686.521650850074366, 0.0 ], [ -1953635.354201572481543, 850419.117761502508074, 0.0 ], [ -1937429.078376521589234, 822293.757193138124421, 0.0 ], [ -1927978.262995084514841, 805386.870215507689863, 0.0 ], [ -1910380.890544672729447, 814402.130031318520196, 0.0 ], [ -1865873.99306272296235, 837164.110462089651264, 0.0 ], [ -1844319.787696517538279, 795371.64815038011875, 0.0 ], [ -1838856.085941736586392, 784409.939499769010581, 0.0 ], [ -1825280.480807606130838, 790633.231723089003935, 0.0 ], [ -1779926.321572842076421, 811388.55063904938288, 0.0 ], [ -1757399.713471458526328, 762409.416808935115114, 0.0 ], [ -1753666.31866810657084, 754232.309731088811532, 0.0 ], [ -1744595.640036103781313, 757920.450102004921064, 0.0 ], [ -1698478.696971128229052, 776639.570025869761594, 0.0 ], [ -1676988.258495608810335, 723878.17351612134371, 0.0 ], [ -1653241.517709984676912, 665231.722252074861899, 0.0 ], [ -1703701.432393083581701, 644751.085766128613614, 0.0 ], [ -1678532.591658552410081, 589544.616724525694735, 0.0 ], [ -1661179.246118536219001, 550811.961596539593302, 0.0 ], [ -1708632.792029033182189, 529144.001918527530506, 0.0 ], [ -1700376.252942562336102, 512920.765025561559014, 0.0 ], [ -1697590.908205406041816, 507204.226762480975594, 0.0 ], [ -1803825.877411487745121, 453033.047129118524026, 0.0 ], [ -1841543.39128024247475, 526696.494652477675118, 0.0 ], [ -1941294.315828619059175, 464344.912964087328874, 0.0 ], [ -1954884.159243418369442, 486021.035215983109083, 0.0 ], [ -2007448.347820467082784, 449896.198323316173628, 0.0 ] ] ] } },
{ "type": "Feature", "properties": { }, "geometry": { "type": "Polygon", "coordinates": [ [ [ -1836827.84753072890453, -218088.781632702477509, 0.0 ], [ -1836318.894035378005356, -218460.083883586106822, 0.0 ], [ -1785845.503302326891571, -256669.45252853751299, 0.0 ], [ -1755185.110747963190079, -280245.841511733247899, 0.0 ], [ -1787674.288944113999605, -323220.455708907044027, 0.0 ], [ -1769582.054050844861194, -335730.276605551538523, 0.0 ], [ -1743663.068222716217861, -354022.508713069255464, 0.0 ], [ -1811425.101077269297093, -452164.374719233252108, 0.0 ], [ -1825856.275177525123581, -442208.589858028106391, 0.0 ], [ -1855172.037845753831789, -488880.078072264499497, 0.0 ], [ -1993212.224427458830178, -402496.453746665210929, 0.0 ], [ -1966716.440186355961487, -360174.81780835124664, 0.0 ], [ -1960088.993680607760325, -349604.06180873332778, 0.0 ], [ -1992333.560782476095483, -327359.165393603732809, 0.0 ], [ -1964046.10988407721743, -286233.370756699470803, 0.0 ], [ -1952731.619107102043927, -269806.254768744925968, 0.0 ], [ -1924425.041626031277701, -228764.996628657070687, 0.0 ], [ -1873780.478492378722876, -263703.858178293332458, 0.0 ], [ -1872157.802398547530174, -264825.19071550690569, 0.0 ], [ -1866832.901331229833886, -257773.85156526369974, 0.0 ], [ -1836827.84753072890453, -218088.781632702477509, 0.0 ] ] ] } },
{ "type": "Feature", "properties": { }, "geometry": { "type": "Polygon", "coordinates": [ [ [ 295221.502238883054815, -1254627.339064055122435, 0.0 ], [ 354569.379197948961519, -1236709.67451677727513, 0.0 ], [ 355142.0194234707742, -1238609.029219800140709, 0.0 ], [ 386214.926282847998664, -1228121.155254273209721, 0.0 ], [ 425152.250187976693269, -1339622.440079165855423, 0.0 ], [ 422429.622227589250542, -1340566.042268494144082, 0.0 ], [ 423609.658132589713205, -1343526.121068801963702, 0.0 ], [ 416211.963627777702641, -1346477.371989045990631, 0.0 ], [ 418714.338504931831267, -1352039.727492445614189, 0.0 ], [ 390693.90522733720718, -1364520.499017184600234, 0.0 ], [ 387692.966066792956553, -1357854.797447956865653, 0.0 ], [ 362585.864800871349871, -1367871.074230880476534, 0.0 ], [ 360284.068880184495356, -1362104.306419460568577, 0.0 ], [ 336452.13110957382014, -1370363.925061254296452, 0.0 ], [ 334939.391094233666081, -1366040.346315952716395, 0.0 ], [ 329362.535083982744254, -1367724.373463372001424, 0.0 ], [ 315126.100580440252088, -1320570.180492189945653, 0.0 ], [ 309437.74988341529388, -1301726.755475074751303, 0.0 ], [ 295221.502238883054815, -1254627.339064055122435, 0.0 ] ] ] } },
{ "type": "Feature", "properties": { }, "geometry": { "type": "Polygon", "coordinates": [ [ [ -1700214.522337759844959, 303833.710782549867872, 0.0 ], [ -1682752.618678136263043, 275159.480394603451714, 0.0 ], [ -1724519.245565208606422, 249143.440116803016281, 0.0 ], [ -1709269.115733958082274, 226830.183695036568679, 0.0 ], [ -1707526.148395076394081, 224172.882954106520629, 0.0 ], [ -1749329.862568145850673, 195556.47386318014469, 0.0 ], [ -1740376.70178689667955, 183269.476376006903592, 0.0 ], [ -1835723.304146663052961, 111757.383438083765213, 0.0 ], [ -1848133.754529263824224, 128260.104010980809107, 0.0 ], [ -1889283.078048699302599, 94506.227584703781758, 0.0 ], [ -1946505.893995378632098, 163681.44792867457727, 0.0 ], [ -1908012.639058329397812, 195324.839382199395914, 0.0 ], [ -1902173.467201350256801, 200119.081773575453553, 0.0 ], [ -1937212.71388329542242, 246712.305971759342356, 0.0 ], [ -1897393.838884563418105, 276669.9903402714408, 0.0 ], [ -1891396.2891176098492, 281176.660334722604603, 0.0 ], [ -1897163.751794644631445, 289553.515722482232377, 0.0 ], [ -1856119.797945929691195, 317735.239282081194688, 0.0 ], [ -1839711.600665319943801, 328987.56543792859884, 0.0 ], [ -1798683.348342116223648, 357089.203542005212512, 0.0 ], [ -1780626.738814680371433, 331205.674555965815671, 0.0 ], [ -1771645.505028068786487, 318072.701843092974741, 0.0 ], [ -1768860.841207689605653, 319808.999301890318748, 0.0 ], [ -1726717.923318019369617, 346055.067116719146725, 0.0 ], [ -1700214.522337759844959, 303833.710782549867872, 0.0 ] ] ] } },
{ "type": "Feature", "properties": { }, "geometry": { "type": "Polygon", "coordinates": [ [ [ 976409.857201830251142, -2087792.067689461400732, 0.0 ], [ 980560.708811216522008, -2061791.236693597398698, 0.0 ], [ 1033357.818908413057216, -2069724.757338512688875, 0.0 ], [ 1042845.773195440415293, -2052902.402567117474973, 0.0 ], [ 1063105.824257695348933, -2064070.68917972757481, 0.0 ], [ 1063145.19546528486535, -2064092.826704813633114, 0.0 ], [ 1065798.955701255705208, -2039482.05174615024589, 0.0 ], [ 1068043.668088507838547, -2020340.273321807384491, 0.0 ], [ 1092798.057515368098393, -2022976.725653363158926, 0.0 ], [ 1107301.298530594678596, -1994451.377515964908525, 0.0 ], [ 1154845.136262748623267, -2018410.427086186595261, 0.0 ], [ 1182492.861035896930844, -2032529.620285195764154, 0.0 ], [ 1188190.08911078190431, -2033136.400358920218423, 0.0 ], [ 1187961.312379263574257, -2035322.259522235486656, 0.0 ], [ 1198258.75789753976278, -2040580.978781117126346, 0.0 ], [ 1184595.473694412736222, -2067481.340048879617825, 0.0 ], [ 1175840.301447537727654, -2151133.088000777643174, 0.0 ], [ 1143704.473103230120614, -2147756.866121364757419, 0.0 ], [ 1143318.374530244385824, -2148513.735315453726798, 0.0 ], [ 1141353.243287560297176, -2147509.843593669589609, 0.0 ], [ 1125593.648337181657553, -2145854.124976054299623, 0.0 ], [ 1105516.262454311130568, -2143726.791315177455544, 0.0 ], [ 1101006.623483188450336, -2143244.941926416475326, 0.0 ], [ 1100954.996229944052175, -2143336.578532418701798, 0.0 ], [ 1091030.09446897986345, -2160916.539587983395904, 0.0 ], [ 1066154.794301572954282, -2204887.011766249779612, 0.0 ], [ 983459.32908320822753, -2158195.893792463932186, 0.0 ], [ 988821.318938552285545, -2148688.966071432456374, 0.0 ], [ 967727.63584604288917, -2145508.506910844705999, 0.0 ], [ 976409.857201830251142, -2087792.067689461400732, 0.0 ] ] ] } }
]
}
